{"type": "FeatureCollection", "features": [{"type": "Feature", "properties": {"norad_id": 28890, "name": "BEIJING 1", "group": "dmc", "lat": -23.451332632053663, "lon": -72.79613934492527, "alt_km": 681.2858236017646, "timestamp": "2025-12-09T07:41:32.869873+00:00", "meta": {"OBJECT_NAME": "BEIJING 1", "OBJECT_ID": "2005-043A", "EPOCH": "2025-12-08T22:33:38.653344", "MEAN_MOTION": 14.63361052, "ECCENTRICITY": 0.00150624, "INCLINATION": 98.2656, "RA_OF_ASC_NODE": 110.4381, "ARG_OF_PERICENTER": 152.5706, "MEAN_ANOMALY": 207.6294, "EPHEMERIS_TYPE": 0, "CLASSIFICATION_TYPE": "U", "NORAD_CAT_ID": 28890, "ELEMENT_SET_NO": 999, "REV_AT_EPOCH": 7282, "BSTAR": 0.00017017557, "MEAN_MOTION_DOT": 8.32e-06, "MEAN_MOTION_DDOT": 0}, "tle": {"line1": "1 28890U 05043A   25342.94003071  .00000832  00000+0  17018-3 0  9991", "line2": "2 28890  98.2656 110.4381 0015062 152.5706 207.6294 14.63361052 72823"}}, "geometry": {"type": "Point", "coordinates": [-72.79613934492527, -23.451332632053663]}}, {"type": "Feature", "properties": {"norad_id": 33320, "name": "HUANJING 1A (HJ-1A)", "group": "dmc", "lat": -15.278754791647215, "lon": -26.133365939962587, "alt_km": 616.3779235312022, "timestamp": "2025-12-09T07:41:32.869907+00:00", "meta": {"OBJECT_NAME": "HUANJING 1A (HJ-1A)", "OBJECT_ID": "2008-041A", "EPOCH": "2025-12-08T23:40:01.303680", "MEAN_MOTION": 14.83376055, "ECCENTRICITY": 0.00203717, "INCLINATION": 97.6538, "RA_OF_ASC_NODE": 331.441, "ARG_OF_PERICENTER": 46.0719, "MEAN_ANOMALY": 314.2172, "EPHEMERIS_TYPE": 0, "CLASSIFICATION_TYPE": "U", "NORAD_CAT_ID": 33320, "ELEMENT_SET_NO": 999, "REV_AT_EPOCH": 93020, "BSTAR": 0.00034195314, "MEAN_MOTION_DOT": 2.763e-05, "MEAN_MOTION_DDOT": 0}, "tle": {"line1": "1 33320U 08041A   25342.98612620  .00002763  00000+0  34195-3 0  9996", "line2": "2 33320  97.6538 331.4410 0020371  46.0719 314.2172 14.83376055930203"}}, "geometry": {"type": "Point", "coordinates": [-26.133365939962587, -15.278754791647215]}}, {"type": "Feature", "properties": {"norad_id": 33321, "name": "HUANJING 1B (HJ-1B)", "group": "dmc", "lat": -33.161141079467555, "lon": 150.4359267045646, "alt_km": 642.6656672846348, "timestamp": "2025-12-09T07:41:32.869923+00:00", "meta": {"OBJECT_NAME": "HUANJING 1B (HJ-1B)", "OBJECT_ID": "2008-041B", "EPOCH": "2025-12-08T22:38:19.786848", "MEAN_MOTION": 14.82806023, "ECCENTRICITY": 0.00382158, "INCLINATION": 97.6396, "RA_OF_ASC_NODE": 335.1069, "ARG_OF_PERICENTER": 87.7087, "MEAN_ANOMALY": 272.8502, "EPHEMERIS_TYPE": 0, "CLASSIFICATION_TYPE": "U", "NORAD_CAT_ID": 33321, "ELEMENT_SET_NO": 999, "REV_AT_EPOCH": 93021, "BSTAR": 0.00025478787, "MEAN_MOTION_DOT": 2.036e-05, "MEAN_MOTION_DDOT": 0}, "tle": {"line1": "1 33321U 08041B   25342.94328457  .00002036  00000+0  25479-3 0  9993", "line2": "2 33321  97.6396 335.1069 0038215  87.7087 272.8502 14.82806023930212"}}, "geometry": {"type": "Point", "coordinates": [150.4359267045646, -33.161141079467555]}}, {"type": "Feature", "properties": {"norad_id": 33446, "name": "YAOGAN-4", "group": "dmc", "lat": 52.815687392644755, "lon": 104.02411558206511, "alt_km": 624.538304216795, "timestamp": "2025-12-09T07:41:32.869936+00:00", "meta": {"OBJECT_NAME": "YAOGAN-4", "OBJECT_ID": "2008-061A", "EPOCH": "2025-12-08T19:47:11.729184", "MEAN_MOTION": 14.82664885, "ECCENTRICITY": 0.00139192, "INCLINATION": 97.9177, "RA_OF_ASC_NODE": 272.962, "ARG_OF_PERICENTER": 336.595, "MEAN_ANOMALY": 23.4628, "EPHEMERIS_TYPE": 0, "CLASSIFICATION_TYPE": "U", "NORAD_CAT_ID": 33446, "ELEMENT_SET_NO": 999, "REV_AT_EPOCH": 91745, "BSTAR": 0.00038742009, "MEAN_MOTION_DOT": 3.075e-05, "MEAN_MOTION_DDOT": 0}, "tle": {"line1": "1 33446U 08061A   25342.82444131  .00003075  00000+0  38742-3 0  9999", "line2": "2 33446  97.9177 272.9620 0013919 336.5950  23.4628 14.82664885917457"}}, "geometry": {"type": "Point", "coordinates": [104.02411558206511, 52.815687392644755]}}, {"type": "Feature", "properties": {"norad_id": 35681, "name": "DEIMOS-1", "group": "dmc", "lat": -8.919959518207708, "lon": 145.30163930697765, "alt_km": 649.5345422407945, "timestamp": "2025-12-09T07:41:32.869949+00:00", "meta": {"OBJECT_NAME": "DEIMOS-1", "OBJECT_ID": "2009-041A", "EPOCH": "2025-12-08T23:35:32.349120", "MEAN_MOTION": 14.74944279, "ECCENTRICITY": 0.00027139, "INCLINATION": 97.7145, "RA_OF_ASC_NODE": 143.7609, "ARG_OF_PERICENTER": 85.3579, "MEAN_ANOMALY": 274.7941, "EPHEMERIS_TYPE": 0, "CLASSIFICATION_TYPE": "U", "NORAD_CAT_ID": 35681, "ELEMENT_SET_NO": 999, "REV_AT_EPOCH": 87884, "BSTAR": 0.00018870686, "MEAN_MOTION_DOT": 1.22e-05, "MEAN_MOTION_DDOT": 0}, "tle": {"line1": "1 35681U 09041A   25342.98301330  .00001220  00000+0  18871-3 0  9992", "line2": "2 35681  97.7145 143.7609 0002713  85.3579 274.7941 14.74944279878848"}}, "geometry": {"type": "Point", "coordinates": [145.30163930697765, -8.919959518207708]}}, {"type": "Feature", "properties": {"norad_id": 35683, "name": "UK-DMC 2", "group": "dmc", "lat": -2.1484254215992356, "lon": 118.6165595436637, "alt_km": 646.6318778113073, "timestamp": "2025-12-09T07:41:32.869960+00:00", "meta": {"OBJECT_NAME": "UK-DMC 2", "OBJECT_ID": "2009-041C", "EPOCH": "2025-12-08T23:33:54.325728", "MEAN_MOTION": 14.75608643, "ECCENTRICITY": 0.00013526, "INCLINATION": 97.8563, "RA_OF_ASC_NODE": 117.9908, "ARG_OF_PERICENTER": 96.4562, "MEAN_ANOMALY": 263.6801, "EPHEMERIS_TYPE": 0, "CLASSIFICATION_TYPE": "U", "NORAD_CAT_ID": 35683, "ELEMENT_SET_NO": 999, "REV_AT_EPOCH": 87851, "BSTAR": 0.00022320769, "MEAN_MOTION_DOT": 1.474e-05, "MEAN_MOTION_DDOT": 0}, "tle": {"line1": "1 35683U 09041C   25342.98187877  .00001474  00000+0  22321-3 0  9998", "line2": "2 35683  97.8563 117.9908 0001352  96.4562 263.6801 14.75608643878512"}}, "geometry": {"type": "Point", "coordinates": [118.6165595436637, -2.1484254215992356]}}, {"type": "Feature", "properties": {"norad_id": 40715, "name": "DMC3-FM1", "group": "dmc", "lat": -72.10230204436762, "lon": -124.70260374034406, "alt_km": 617.2573864551205, "timestamp": "2025-12-09T07:41:32.869971+00:00", "meta": {"OBJECT_NAME": "DMC3-FM1", "OBJECT_ID": "2015-032A", "EPOCH": "2025-12-08T22:19:25.584672", "MEAN_MOTION": 14.85431935, "ECCENTRICITY": 0.00049165, "INCLINATION": 97.669, "RA_OF_ASC_NODE": 210.2611, "ARG_OF_PERICENTER": 336.0454, "MEAN_ANOMALY": 24.0532, "EPHEMERIS_TYPE": 0, "CLASSIFICATION_TYPE": "U", "NORAD_CAT_ID": 40715, "ELEMENT_SET_NO": 999, "REV_AT_EPOCH": 56166, "BSTAR": 0.00022971733, "MEAN_MOTION_DOT": 1.929e-05, "MEAN_MOTION_DDOT": 0}, "tle": {"line1": "1 40715U 15032A   25342.93015723  .00001929  00000+0  22972-3 0  9999", "line2": "2 40715  97.6690 210.2611 0004916 336.0454  24.0532 14.85431935561667"}}, "geometry": {"type": "Point", "coordinates": [-124.70260374034406, -72.10230204436762]}}, {"type": "Feature", "properties": {"norad_id": 40716, "name": "DMC3-FM2", "group": "dmc", "lat": 13.703790711477511, "lon": 33.96313590436592, "alt_km": 617.2276231307887, "timestamp": "2025-12-09T07:41:32.869982+00:00", "meta": {"OBJECT_NAME": "DMC3-FM2", "OBJECT_ID": "2015-032B", "EPOCH": "2025-12-08T22:51:49.487904", "MEAN_MOTION": 14.85434029, "ECCENTRICITY": 0.00056435, "INCLINATION": 97.6748, "RA_OF_ASC_NODE": 211.7242, "ARG_OF_PERICENTER": 340.876, "MEAN_ANOMALY": 19.2243, "EPHEMERIS_TYPE": 0, "CLASSIFICATION_TYPE": "U", "NORAD_CAT_ID": 40716, "ELEMENT_SET_NO": 999, "REV_AT_EPOCH": 56166, "BSTAR": 0.00020219517, "MEAN_MOTION_DOT": 1.691e-05, "MEAN_MOTION_DDOT": 0}, "tle": {"line1": "1 40716U 15032B   25342.95265611  .00001691  00000+0  20220-3 0  9995", "line2": "2 40716  97.6748 211.7242 0005643 340.8760  19.2243 14.85434029561661"}}, "geometry": {"type": "Point", "coordinates": [33.96313590436592, 13.703790711477511]}}, {"type": "Feature", "properties": {"norad_id": 40717, "name": "DMC3-FM3", "group": "dmc", "lat": 49.98032632023869, "lon": -155.5388698013367, "alt_km": 606.4764279541332, "timestamp": "2025-12-09T07:41:32.869993+00:00", "meta": {"OBJECT_NAME": "DMC3-FM3", "OBJECT_ID": "2015-032C", "EPOCH": "2025-12-08T21:45:55.505088", "MEAN_MOTION": 14.85420839, "ECCENTRICITY": 0.00050419, "INCLINATION": 97.6803, "RA_OF_ASC_NODE": 213.3103, "ARG_OF_PERICENTER": 342.7545, "MEAN_ANOMALY": 17.3499, "EPHEMERIS_TYPE": 0, "CLASSIFICATION_TYPE": "U", "NORAD_CAT_ID": 40717, "ELEMENT_SET_NO": 999, "REV_AT_EPOCH": 56166, "BSTAR": 8.1914989e-05, "MEAN_MOTION_DOT": 6.54e-06, "MEAN_MOTION_DDOT": 0}, "tle": {"line1": "1 40717U 15032C   25342.90689242  .00000654  00000+0  81915-4 0  9998", "line2": "2 40717  97.6803 213.3103 0005041 342.7545  17.3499 14.85420839561668"}}, "geometry": {"type": "Point", "coordinates": [-155.5388698013367, 49.98032632023869]}}]}